NORAD_CAT_ID,OBJECT_NAME,OBJECT_TYPE,EPOCH,MEAN_MOTION,ECCENTRICITY,INCLINATION,RA_OF_ASC_NODE,ARG_OF_PERICENTER,MEAN_ANOMALY,BSTAR,MEAN_MOTION_DOT,MEAN_MOTION_DDOT,TLE_LINE0,TLE_LINE1,TLE_LINE2,SEMIMAJOR_AXIS,PERIOD,APOGEE,PERIGEE,DECAYED
53846.0,STARLINK-4746,PAYLOAD,2024-02-28 04:30:36,15.0884226,0.0001509,53.2189,18.1792,106.9424,253.1734,5.6837e-05,6.17e-06,0.0,0 STARLINK-4746,1 53846U 22114AE  24059.18792634  .00000617  00000-0  56837-4 0  9993,2 53846  53.2189  18.1792 0001509 106.9424 253.1734 15.08842260 80644,6917.873,95.437,540.782,538.695,0.0
53846.0,STARLINK-4746,PAYLOAD,2024-02-28 14:02:55,15.08844664,0.0001478,53.2192,16.3944,97.1401,262.9759,3.2489e-05,2.29e-06,0.0,0 STARLINK-4746,1 53846U 22114AE  24059.58536539  .00000229  00000-0  32489-4 0  9993,2 53846  53.2192  16.3944 0001478  97.1401 262.9759 15.08844664 81240,6917.866,95.437,540.754,538.709,0.0
53846.0,STARLINK-4746,PAYLOAD,2024-02-29 04:21:24,15.08835208,0.0001484,53.2195,13.7178,91.8753,268.2409,0.00013945,1.932e-05,0.0,0 STARLINK-4746,1 53846U 22114AE  24060.18153317  .00001932  00000-0  13945-3 0  9997,2 53846  53.2195  13.7178 0001484  91.8753 268.2409 15.08835208 80795,6917.895,95.438,540.787,538.733,0.0
53846.0,STARLINK-4746,PAYLOAD,2024-02-29 13:53:43,15.08837928,0.000155,53.2201,11.9338,92.0647,268.0523,0.00010721,1.419e-05,0.0,0 STARLINK-4746,1 53846U 22114AE  24060.57897294  .00001419  00000-0  10721-3 0  9998,2 53846  53.2201  11.9338 0001550  92.0647 268.0523 15.08837928 81393,6917.887,95.438,540.824,538.679,0.0
53846.0,STARLINK-4746,PAYLOAD,2024-03-01 13:44:30,15.08842648,0.0001265,53.2182,7.4708,90.1865,269.9272,7.9802e-05,9.82e-06,0.0,0 STARLINK-4746,1 53846U 22114AE  24061.57257004  .00000982  00000-0  79802-4 0  9998,2 53846  53.2182   7.4708 0001265  90.1865 269.9272 15.08842648 81549,6917.872,95.437,540.612,538.862,0.0
53846.0,STARLINK-4746,PAYLOAD,2024-03-02 02:27:34,15.08846254,0.0001454,53.2187,5.0913,93.5751,266.5407,9.5647e-05,1.235e-05,0.0,0 STARLINK-4746,1 53846U 22114AE  24062.10248752  .00001235  00000-0  95647-4 0  9995,2 53846  53.2187   5.0913 0001454  93.5751 266.5407 15.08846254 81626,6917.861,95.437,540.732,538.72,0.0
53846.0,STARLINK-4746,PAYLOAD,2024-03-03 02:18:21,15.08844832,0.0001439,53.218,0.6333,88.265,271.8507,0.0001079,1.43e-05,0.0,0 STARLINK-4746,1 53846U 22114AE  24063.09608743  .00001430  00000-0  10790-3 0  9996,2 53846  53.2180   0.6333 0001439  88.2650 271.8507 15.08844832 81235,6917.866,95.437,540.726,538.735,0.0
53846.0,STARLINK-4746,PAYLOAD,2024-03-03 05:29:07,15.08853221,0.0001508,53.2191,0.0373,92.5146,267.6019,0.00010606,1.401e-05,0.0,0 STARLINK-4746,1 53846U 22114AE  24063.22856206  .00001401  00000-0  10606-3 0  9994,2 53846  53.2191   0.0373 0001508  92.5146 267.6019 15.08853221 81255,6917.84,95.437,540.748,538.662,0.0
53846.0,STARLINK-4746,PAYLOAD,2024-03-03 19:47:37,15.08837074,0.0001237,53.2189,357.361,79.7219,280.3913,1.56e-05,-4e-07,0.0,0 STARLINK-4746,1 53846U 22114AE  24063.82473395 -.00000040  00000-0  15600-4 0  9993,2 53846  53.2189 357.3610 0001237  79.7219 280.3913 15.08837074 81883,6917.889,95.438,540.61,538.899,0.0
53846.0,STARLINK-4746,PAYLOAD,2024-03-04 02:09:08,15.08856402,0.0001657,53.2188,356.168,109.7937,250.3234,0.00027798,4.141e-05,0.0,0 STARLINK-4746,1 53846U 22114AE  24064.08968093  .00004141  00000-0  27798-3 0  9991,2 53846  53.2188 356.1680 0001657 109.7937 250.3234 15.08856402 81927,6917.83,95.437,540.842,538.549,0.0
53846.0,STARLINK-4746,PAYLOAD,2024-03-04 22:49:09,15.08836958,0.0002032,53.2183,352.3074,127.5945,232.5232,0.00029314,4.38e-05,0.0,0 STARLINK-4746,1 53846U 22114AE  24064.95080616  .00004380  00000-0  29314-3 0  9994,2 53846  53.2183 352.3074 0002032 127.5945 232.5232 15.08836958 82051,6917.89,95.438,541.16,538.349,0.0
53846.0,STARLINK-4746,PAYLOAD,2024-03-05 01:59:55,15.08851452,0.0001398,53.2187,351.7148,102.0111,258.1038,3.4766e-05,2.66e-06,0.0,0 STARLINK-4746,1 53846U 22114AE  24065.08327913  .00000266  00000-0  34766-4 0  9990,2 53846  53.2187 351.7148 0001398 102.0111 258.1038 15.08851452 81533,6917.845,95.437,540.677,538.743,0.0
53846.0,STARLINK-4746,PAYLOAD,2024-03-05 19:29:10,15.08835473,0.0002074,53.2205,348.4437,109.8502,250.2714,-0.00010892,-2.021e-05,0.0,0 STARLINK-4746,1 53846U 22114AE  24065.81192827 -.00002021  00000-0 -10892-3 0  9991,2 53846  53.2205 348.4437 0002074 109.8502 250.2714 15.08835473 81640,6917.894,95.438,541.194,538.324,0.0
53846.0,STARLINK-4746,PAYLOAD,2024-03-06 00:15:20,15.08829616,0.0001475,53.2192,347.5505,99.1431,260.9728,-0.0001607,-2.844e-05,0.0,0 STARLINK-4746,1 53846U 22114AE  24066.01065255 -.00002844  00000-0 -16070-3 0  9995,2 53846  53.2192 347.5505 0001475  99.1431 260.9728 15.08829616 81675,6917.912,95.438,540.798,538.757,0.0
53846.0,STARLINK-4746,PAYLOAD,2024-03-06 05:01:29,15.08832559,0.0001552,53.2195,346.6552,104.9398,255.1767,-0.00011794,-2.164e-05,0.0,0 STARLINK-4746,1 53846U 22114AE  24066.20937122 -.00002164  00000-0 -11794-3 0  9990,2 53846  53.2195 346.6552 0001552 104.9398 255.1767 15.08832559 82246,6917.903,95.438,540.842,538.694,0.0
53846.0,STARLINK-4746,PAYLOAD,2024-03-07 03:16:53,15.08843656,0.0001303,53.218,342.4916,104.6163,255.4973,0.000213,3.104e-05,0.0,0 STARLINK-4746,1 53846U 22114AE  24067.13673066  .00003104  00000-0  21300-3 0  9994,2 53846  53.2180 342.4916 0001303 104.6163 255.4973 15.08843656 81846,6917.869,95.437,540.636,538.833,0.0
53846.0,STARLINK-4746,PAYLOAD,2024-03-08 03:07:41,15.08842686,0.0001567,53.2185,338.0304,96.6716,263.4455,0.00026075,3.865e-05,0.0,0 STARLINK-4746,1 53846U 22114AE  24068.13033615  .00003865  00000-0  26075-3 0  9993,2 53846  53.2185 338.0304 0001567  96.6716 263.4455 15.08842686 81991,6917.872,95.437,540.821,538.653,0.0
53846.0,STARLINK-4746,PAYLOAD,2024-03-08 11:04:36,15.08841624,0.0001619,53.2188,336.5458,79.6413,280.4761,0.00017417,2.485e-05,0.0,0 STARLINK-4746,1 53846U 22114AE  24068.46153769  .00002485  00000-0  17417-3 0  9999,2 53846  53.2188 336.5458 0001619  79.6413 280.4761 15.08841624 82586,6917.875,95.437,540.86,538.62,0.0
53846.0,STARLINK-4746,PAYLOAD,2024-03-09 10:55:23,15.08843768,0.0001221,53.2185,332.0836,106.1624,253.9503,0.000131,1.798e-05,0.0,0 STARLINK-4746,1 53846U 22114AE  24069.45513407  .00001798  00000-0  13100-3 0  9999,2 53846  53.2185 332.0836 0001221 106.1624 253.9503 15.08843768 82190,6917.869,95.437,540.579,538.889,0.0
53846.0,STARLINK-4746,PAYLOAD,2024-03-10 10:46:10,15.08848208,0.0001166,53.2176,327.6232,103.4358,256.6764,9.9188e-05,1.291e-05,0.0,0 STARLINK-4746,1 53846U 22114AE  24070.44873055  .00001291  00000-0  99188-4 0  9997,2 53846  53.2176 327.6232 0001166 103.4358 256.6764 15.08848208 82881,6917.855,95.437,540.527,538.914,0.0
53846.0,STARLINK-4746,PAYLOAD,2024-03-10 20:18:29,15.08838417,0.0001385,53.2178,325.8397,95.9928,264.1222,-3.2289e-06,-3.39e-06,0.0,0 STARLINK-4746,1 53846U 22114AE  24070.84617699 -.00000339  00000-0 -32289-5 0  9995,2 53846  53.2178 325.8397 0001385  95.9928 264.1222 15.08838417 82408,6917.885,95.438,540.708,538.792,0.0
53846.0,STARLINK-4746,PAYLOAD,2024-03-10 21:53:52,15.08839166,0.0001372,53.217,325.5426,94.791,265.3238,7.7595e-06,-1.64e-06,0.0,0 STARLINK-4746,1 53846U 22114AE  24070.91241650 -.00000164  00000-0  77595-5 0  9997,2 53846  53.2170 325.5426 0001372  94.7910 265.3238 15.08839166 82956,6917.883,95.438,540.697,538.799,0.0
53846.0,STARLINK-4746,PAYLOAD,2024-03-11 02:40:01,15.08844772,0.0001548,53.2184,324.6499,93.0273,267.0896,-2.14e-05,-6.29e-06,0.0,0 STARLINK-4746,1 53846U 22114AE  24071.11113373 -.00000629  00000-0 -21400-4 0  9990,2 53846  53.2184 324.6499 0001548  93.0273 267.0896 15.08844772 82981,6917.866,95.437,540.802,538.66,0.0
53846.0,STARLINK-4746,PAYLOAD,2024-03-11 16:58:29,15.08863148,6.56e-05,53.2171,321.9717,75.9251,284.1814,-0.00071426,-0.00011644,0.0,0 STARLINK-4746,1 53846U 22114AE  24071.70728091 -.00011644  00000-0 -71426-3 0  9995,2 53846  53.2171 321.9717 0000656  75.9251 284.1814 15.08863148 82533,6917.81,95.436,540.128,539.221,0.0
53846.0,STARLINK-4746,PAYLOAD,2024-03-12 02:30:49,15.08840294,0.0001814,53.2159,320.1887,103.778,256.3414,0.00011592,1.557e-05,0.0,0 STARLINK-4746,1 53846U 22114AE  24072.10473670  .00001557  00000-0  11592-3 0  9998,2 53846  53.2159 320.1887 0001814 103.7780 256.3414 15.08840294 82592,6917.879,95.438,540.999,538.49,0.0
53846.0,STARLINK-4746,PAYLOAD,2024-03-12 16:49:17,15.08833859,0.0001904,53.2171,317.5138,105.2766,254.8437,9.3501e-05,1.2e-05,0.0,0 STARLINK-4746,1 53846U 22114AE  24072.70090178  .00001200  00000-0  93501-4 0  9998,2 53846  53.2171 317.5138 0001904 105.2766 254.8437 15.08833859 82683,6917.899,95.438,541.081,538.447,0.0
53846.0,STARLINK-4746,PAYLOAD,2024-03-12 23:10:50,15.08838951,0.0001699,53.2177,316.3258,97.0368,263.0817,0.00012956,1.774e-05,0.0,0 STARLINK-4746,1 53846U 22114AE  24072.96586064  .00001774  00000-0  12956-3 0  9990,2 53846  53.2177 316.3258 0001699  97.0368 263.0817 15.08838951 83263,6917.884,95.438,540.924,538.573,0.0
53846.0,STARLINK-4746,PAYLOAD,2024-03-13 08:43:09,15.08837765,0.0001419,53.2152,314.5414,92.6861,267.4294,3.9123e-05,3.35e-06,0.0,0 STARLINK-4746,1 53846U 22114AE  24073.36329989  .00000335  00000-0  39123-4 0  9994,2 53846  53.2152 314.5414 0001419  92.6861 267.4294 15.08837765 83325,6917.887,95.438,540.734,538.771,0.0
53846.0,STARLINK-4746,PAYLOAD,2024-03-13 23:01:37,15.08836404,0.0001392,53.2156,311.8646,100.2259,259.889,6.243e-07,-2.78e-06,0.0,0 STARLINK-4746,1 53846U 22114AE  24073.95946204 -.00000278  00000-0  62430-6 0  9990,2 53846  53.2156 311.8646 0001392 100.2259 259.8890 15.08836404 82878,6917.891,95.438,540.719,538.793,0.0
53846.0,STARLINK-4746,PAYLOAD,2024-03-14 21:17:01,15.08842864,8.39e-05,53.2165,307.7007,47.0452,313.061,3.568e-07,-2.82e-06,0.0,0 STARLINK-4746,1 53846U 22114AE  24074.88682427 -.00000282  00000-0  35680-6 0  9999,2 53846  53.2165 307.7007 0000839  47.0452 313.0610 15.08842864 83557,6917.872,95.437,540.317,539.156,0.0
